{"fetched_at":"2026-03-29T02:12:04Z","count":15717,"tles":[{"name":"STARLINK-34762","line1":"1 65473U 25195R   26087.50355040  .00029183  00000+0  99348-3 0  9990","line2":"2 65473  53.1591 170.8290 0001130  88.7761 271.3370 15.30202779 32857","category":"Starlink"}]}